[{"OBJECT_NAME":"STARLINK-36336","OBJECT_ID":"2026-035Y","EPOCH":"2026-03-03T14:00:03.000384","MEAN_MOTION":16.02741017,"ECCENTRICITY":0.00013065,"INCLINATION":97.2756,"RA_OF_ASC_NODE":354.4675,"ARG_OF_PERICENTER":114.1337,"MEAN_ANOMALY":47.927,"EPHEMERIS_TYPE":0,"CLASSIFICATION_TYPE":"U","NORAD_CAT_ID":67901,"ELEMENT_SET_NO":999,"REV_AT_EPOCH":282,"BSTAR":-0.0017694886,"MEAN_MOTION_DOT":-0.01046129,"MEAN_MOTION_DDOT":0.00036767837},{"OBJECT_NAME":"STARLINK-36876","OBJECT_ID":"2026-035Z","EPOCH":"2026-03-03T14:00:03.000384","MEAN_MOTION":16.02501466,"ECCENTRICITY":0.000148,"INCLINATION":97.2758,"RA_OF_ASC_NODE":354.4647,"ARG_OF_PERICENTER":110.0559,"MEAN_ANOMALY":44.1868,"EPHEMERIS_TYPE":0,"CLASSIFICATION_TYPE":"U","NORAD_CAT_ID":67902,"ELEMENT_SET_NO":999,"REV_AT_EPOCH":277,"BSTAR":-0.0017898048,"MEAN_MOTION_DOT":-0.01043478,"MEAN_MOTION_DDOT":0.00036493699},{"OBJECT_NAME":"STARLINK-36257","OBJECT_ID":"2026-035AA","EPOCH":"2026-03-03T14:00:03.000384","MEAN_MOTION":16.02611015,"ECCENTRICITY":0.00012975,"INCLINATION":97.2754,"RA_OF_ASC_NODE":354.4651,"ARG_OF_PERICENTER":96.7311,"MEAN_ANOMALY":60.8311,"EPHEMERIS_TYPE":0,"CLASSIFICATION_TYPE":"U","NORAD_CAT_ID":67903,"ELEMENT_SET_NO":999,"REV_AT_EPOCH":282,"BSTAR":-0.0017863206,"MEAN_MOTION_DOT":-0.0104806,"MEAN_MOTION_DDOT":0.00036838066}]
